OBJECT_NAME,OBJECT_ID,EPOCH,MEAN_MOTION,ECCENTRICITY,INCLINATION,RA_OF_ASC_NODE,ARG_OF_PERICENTER,MEAN_ANOMALY,EPHEMERIS_TYPE,CLASSIFICATION_TYPE,NORAD_CAT_ID,ELEMENT_SET_NO,REV_AT_EPOCH,BSTAR,MEAN_MOTION_DOT,MEAN_MOTION_DDOT
SITRO-AIS 7 (FARTUSHNIY),2023-091AE,2026-07-20T04:01:39.942624,15.26161761,.00106207,97.5041,264.1426,0.2309,359.8932,0,U,57194,999,16930,.19957942E-3,.5089E-4,0
AVION KALUGA 650,2023-091AF,2026-07-20T06:20:11.539680,15.20661434,.00099346,97.5068,260.7101,5.1368,354.9967,0,U,57195,999,16905,.13517576E-3,.29E-4,0
HORS 2,2023-091AG,2026-07-20T04:59:15.790560,15.32634628,.00063492,97.5066,268.7029,335.5785,24.5155,0,U,57196,999,16958,.24013333E-3,.7491E-4,0
A-SEANSAT-PG1,2023-091AH,2026-07-20T06:26:08.338848,15.37988450,.00052141,97.5057,271.5785,327.5891,32.5032,0,U,57197,999,16979,.27885672E-3,.10341E-3,0
SITRO-AIS 10 (BURDAEV),2023-091AK,2026-07-20T05:01:22.916928,15.39740396,.00044918,97.5058,272.5669,318.6208,41.4697,0,U,57199,999,16984,.29007811E-3,.11396E-3,0
SITRO-AIS 9 (SHCHUKIN),2023-091AM,2026-07-20T04:21:21.428928,15.39221688,.00047528,97.5056,272.2416,319.2138,40.8751,0,U,57201,999,16982,.27763092E-3,.10718E-3,0
UTMN 2 (RS27S),2023-091AP,2026-07-20T07:07:52.240224,15.32771785,.00062859,97.5065,268.9918,329.8109,30.2769,0,U,57203,999,16961,.21878767E-3,.6847E-4,0
SITRO-AIS 12 (SMIRENNIY),2023-091AQ,2026-07-20T07:05:59.041536,15.39520668,.00043678,97.5069,272.8469,310.4227,49.6637,0,U,57204,999,16986,.28554402E-3,.11135E-3,0
SITRO-AIS 11 (SHEFFER),2023-091AU,2026-07-20T05:38:14.323200,15.39966543,.00043024,97.5068,273.0522,309.9449,50.1419,0,U,57208,999,16987,.28122662E-3,.11127E-3,0
H2SAT (HEINRICH HERTZ),2023-093A,2026-07-20T06:17:18.744000,1.00272753,.00005793,0.0236,107.9947,231.6025,53.4683,0,U,57213,999,1124,0,0,0
KUZGTU 1 (RS47S),2023-091AV,2026-07-20T06:04:30.381024,15.30535335,.00095351,97.5041,266.0832,347.5595,12.5409,0,U,57217,999,16943,.22364378E-3,.6532E-4,0
QIANKUN-1,2023-103B,2026-07-16T14:42:06.791040,16.07858994,.0035589,96.1400,240.3808,130.8922,229.5456,0,U,57422,999,17202,.75371E-5,.6165E-4,.16552E-5
FENGYUN 3F,2023-111A,2026-07-20T07:18:06.102720,14.19943958,.00011731,98.6822,270.6934,75.2727,284.8580,0,U,57490,999,15356,.24215864E-4,.8E-7,0
HJ-2F,2023-116A,2026-07-20T07:26:53.120256,15.22735076,.0006315,97.3856,205.9630,289.9442,70.1114,0,U,57519,999,16379,.17654341E-3,.405E-4,0
XRISM,2023-137A,2026-07-20T04:26:44.964096,15.12690874,.00078481,31.0011,145.8091,295.7303,64.2525,0,U,57800,999,15786,.11998334E-3,.2251E-4,0
METEOR-M2 4,2024-039A,2026-07-20T07:32:51.461664,14.22432435,.00082382,98.7029,160.1996,76.1086,284.1008,0,U,59051,999,12397,.15449232E-4,-.9E-7,0
GRBBETA,2024-128C,2026-07-20T00:05:27.748896,15.06826823,.00364398,61.9889,101.1115,141.7487,218.6202,0,U,60237,999,11121,.12639206E-3,.1698E-4,0
TRANSPORTER-11 OBJECT A,2024-149A,2026-07-20T02:42:59.110560,15.33385498,.00049851,97.3719,280.9501,104.4682,255.7114,0,U,60468,999,10710,.14650392E-3,.4649E-4,0
WARATAH SEED-1,2024-149B,2026-07-20T03:11:18.432672,15.36692208,.00033204,97.3673,281.7545,111.2399,248.9200,0,U,60469,999,10717,.2065793E-3,.7322E-4,0
PHISAT 2,2024-149C,2026-07-19T18:52:12.012960,15.31471038,.00033513,97.3743,279.8284,114.0961,246.0632,0,U,60470,999,10698,.14769802E-3,.4411E-4,0
LEMUR-2-TOMATOKECHUP,2024-149D,2026-07-20T03:05:26.284416,15.36642534,.00034351,97.3786,283.2728,112.8454,247.3153,0,U,60471,999,10722,.17338804E-3,.6122E-4,0
CONNECTA IOT-1,2024-149E,2026-07-19T22:22:57.726048,15.23762541,.00031368,97.3744,276.6738,132.5747,227.5755,0,U,60472,999,10678,.93018011E-4,.2167E-4,0
LOPEN,2024-149F,2026-07-19T17:54:04.721472,15.40543573,.00030027,97.3766,284.3876,125.9197,234.2328,0,U,60473,999,10727,.21137247E-3,.8501E-4,0
ROCK,2024-149G,2026-07-19T05:06:44.918496,15.40521087,.00032501,97.3763,283.8639,123.9273,236.2283,0,U,60474,999,10719,.19937094E-3,.8007E-4,0
CONNECTA IOT-3,2024-149H,2026-07-20T03:37:02.153568,15.23777286,.00042913,97.3718,276.6312,131.2913,228.8694,0,U,60475,999,10682,.94923014E-4,.2214E-4,0
QUBE,2024-149J,2026-07-19T18:05:16.079712,15.48640744,.00033738,97.3766,287.8495,120.3940,239.7644,0,U,60476,999,10750,.26947872E-3,.14315E-3,0
WREN-1,2024-149L,2026-07-19T23:11:21.642144,15.42742485,.00056826,97.3750,285.4511,138.1217,222.0466,0,U,60478,999,10737,.29348299E-3,.12748E-3,0
TOMORROW-S1,2024-149M,2026-07-20T00:51:15.533280,15.33131535,.00042675,97.3736,281.4124,120.5019,239.6646,0,U,60479,999,10712,.12730924E-3,.3996E-4,0
FLOCK 4BE-18,2024-149N,2026-07-20T00:55:27.912000,15.42812060,.00054072,97.3715,285.1340,132.0784,228.0924,0,U,60480,999,10737,.24408838E-3,.10609E-3,0
