SITRO-AIS 7 (FARTUSHNIY)
1 57194U 23091AE  26201.16782341  .00005089  00000+0  19958-3 0  9990
2 57194  97.5041 264.1426 0010620   0.2309 359.8932 15.26161761169306
AVION KALUGA 650        
1 57195U 23091AF  26201.26402245  .00002900  00000+0  13518-3 0  9999
2 57195  97.5068 260.7101 0009934   5.1368 354.9967 15.20661434169055
HORS 2                  
1 57196U 23091AG  26201.20782165  .00007491  00000+0  24013-3 0  9998
2 57196  97.5066 268.7029 0006349 335.5785  24.5155 15.32634628169586
A-SEANSAT-PG1           
1 57197U 23091AH  26201.26815207  .00010341  00000+0  27886-3 0  9998
2 57197  97.5057 271.5785 0005214 327.5891  32.5032 15.37988450169793
SITRO-AIS 10 (BURDAEV)  
1 57199U 23091AK  26201.20929302  .00011396  00000+0  29008-3 0  9995
2 57199  97.5058 272.5669 0004491 318.6208  41.4697 15.39740396169846
SITRO-AIS 9 (SHCHUKIN)  
1 57201U 23091AM  26201.18149802  .00010718  00000+0  27763-3 0  9998
2 57201  97.5056 272.2416 0004752 319.2138  40.8751 15.39221688169824
UTMN 2 (RS27S)          
1 57203U 23091AP  26201.29713241  .00006847  00000+0  21879-3 0  9996
2 57203  97.5065 268.9918 0006285 329.8109  30.2769 15.32771785169613
SITRO-AIS 12 (SMIRENNIY)
1 57204U 23091AQ  26201.29582224  .00011135  00000+0  28554-3 0  9995
2 57204  97.5069 272.8469 0004367 310.4227  49.6637 15.39520668169863
SITRO-AIS 11 (SHEFFER)  
1 57208U 23091AU  26201.23488800  .00011127  00000+0  28123-3 0  9991
2 57208  97.5068 273.0522 0004302 309.9449  50.1419 15.39966543169879
H2SAT (HEINRICH HERTZ)  
1 57213U 23093A   26201.26202250  .00000000  00000+0  00000+0 0  9993
2 57213   0.0236 107.9947 0000579 231.6025  53.4683  1.00272753 11242
KUZGTU 1 (RS47S)        
1 57217U 23091AV  26201.25312941  .00006532  00000+0  22364-3 0  9990
2 57217  97.5041 266.0832 0009535 347.5595  12.5409 15.30535335169434
QIANKUN-1               
1 57422U 23103B   26197.61257860  .00006165  16552-5  75371-5 0  9999
2 57422  96.1400 240.3808 0035589 130.8922 229.5456 16.07858994172024
FENGYUN 3F              
1 57490U 23111A   26201.30423730  .00000008  00000+0  24216-4 0  9992
2 57490  98.6822 270.6934 0001173  75.2727 284.8580 14.19943958153563
HJ-2F                   
1 57519U 23116A   26201.31033704  .00004050  00000+0  17654-3 0  9996
2 57519  97.3856 205.9630 0006315 289.9442  70.1114 15.22735076163793
XRISM                   
1 57800U 23137A   26201.18524264  .00002251  00000+0  11998-3 0  9999
2 57800  31.0011 145.8091 0007848 295.7303  64.2525 15.12690874157866
METEOR-M2 4             
1 59051U 24039A   26201.31448451 -.00000009  00000+0  15449-4 0  9995
2 59051  98.7029 160.1996 0008238  76.1086 284.1008 14.22432435123973
GRBBETA                 
1 60237U 24128C   26201.00379339  .00001698  00000+0  12639-3 0  9997
2 60237  61.9889 101.1115 0036439 141.7487 218.6202 15.06826823111216
TRANSPORTER-11 OBJECT A 
1 60468U 24149A   26201.11318415  .00004649  00000+0  14650-3 0  9990
2 60468  97.3719 280.9501 0004985 104.4682 255.7114 15.33385498107101
WARATAH SEED-1          
1 60469U 24149B   26201.13285223  .00007322  00000+0  20658-3 0  9999
2 60469  97.3673 281.7545 0003320 111.2399 248.9200 15.36692208107171
PHISAT 2                
1 60470U 24149C   26200.78625015  .00004411  00000+0  14770-3 0  9992
2 60470  97.3743 279.8284 0003351 114.0961 246.0632 15.31471038106986
LEMUR-2-TOMATOKECHUP    
1 60471U 24149D   26201.12877644  .00006122  00000+0  17339-3 0  9994
2 60471  97.3786 283.2728 0003435 112.8454 247.3153 15.36642534107228
CONNECTA IOT-1          
1 60472U 24149E   26200.93261257  .00002167  00000+0  93018-4 0  9994
2 60472  97.3744 276.6738 0003136 132.5747 227.5755 15.23762541106787
LOPEN                   
1 60473U 24149F   26200.74588798  .00008501  00000+0  21137-3 0  9996
2 60473  97.3766 284.3876 0003002 125.9197 234.2328 15.40543573107275
ROCK                    
1 60474U 24149G   26200.21301989  .00008007  00000+0  19937-3 0  9990
2 60474  97.3763 283.8639 0003250 123.9273 236.2283 15.40521087107191
CONNECTA IOT-3          
1 60475U 24149H   26201.15071937  .00002214  00000+0  94923-4 0  9995
2 60475  97.3718 276.6312 0004291 131.2913 228.8694 15.23777286106826
QUBE                    
1 60476U 24149J   26200.75365833  .00014315  00000+0  26948-3 0  9998
2 60476  97.3766 287.8495 0003373 120.3940 239.7644 15.48640744107502
WREN-1                  
1 60478U 24149L   26200.96622271  .00012748  00000+0  29348-3 0  9990
2 60478  97.3750 285.4511 0005682 138.1217 222.0466 15.42742485107370
TOMORROW-S1             
1 60479U 24149M   26201.03559645  .00003996  00000+0  12731-3 0  9997
2 60479  97.3736 281.4124 0004267 120.5019 239.6646 15.33131535107129
FLOCK 4BE-18            
1 60480U 24149N   26201.03851750  .00010609  00000+0  24409-3 0  9995
2 60480  97.3715 285.1340 0005407 132.0784 228.0924 15.42812060107370
